STARLINK-4503           
1 53528U 22101B   22241.58334491 -.01198762  00000+0 -83115-2 0  9992
2 53528  53.2176 106.3010 0003285 353.4003 171.5076 15.76543204  1304
STARLINK-4478           
1 53529U 22101C   22241.58334491 -.01197644  00000+0 -82923-2 0  9997
2 53529  53.2176 106.2981 0003187 359.8646 166.0963 15.76572754  1301
STARLINK-4482           
1 53530U 22101D   22241.58334491 -.01198878  00000+0 -82884-2 0  9995
2 53530  53.2176 106.2967 0003232 356.4278 170.5609 15.76608605  1304
STARLINK-4487           
1 53531U 22101E   22241.58334491 -.01198725  00000+0 -82936-2 0  9995
2 53531  53.2176 106.2971 0003238 355.9049 170.5682 15.76591290  1308
STARLINK-4483           
1 53532U 22101F   22241.58334491 -.01198621  00000+0 -82804-2 0  9995
2 53532  53.2176 106.2956 0003229 357.3774 170.1304 15.76624844  1302
STARLINK-4493           
1 53533U 22101G   22241.58334491 -.01198678  00000+0 -82737-2 0  9993
2 53533  53.2176 106.2940 0003429 354.6146 173.4107 15.76641401  1306
STARLINK-4488           
1 53534U 22101H   22241.58334491 -.01196515  00000+0 -82326-2 0  9996
2 53534  53.2176 106.2901 0003307   3.5322 166.5487 15.76708907  1304
STARLINK-4138           
1 53535U 22101J   22241.58334491 -.01197637  00000+0 -82542-2 0  9993
2 53535  53.2176 106.2920 0003158   1.2547 167.7957 15.76675966  1307
